FLOCK 4G-13             
1 62621U 25009N   26068.70638971  .00053076  00000+0  16695-2 0  9995
2 62621  97.4019 151.0918 0003801 292.7207  67.3633 15.32770015 63700
STARLINK-35365          
1 66186U 25243K   26068.77135727  .00034418  00000+0  11684-2 0  9995
2 66186  53.1581 245.0632 0001015  72.4283 287.6828 15.30211680 20669
